{
  "type": "FeatureCollection",
  "features": [
    {
      "type": "Feature",
      "properties": {
        "norad_id": 35443,
        "name": "COSMOS 2251 DEB",
        "group": "cosmos-2251-debris",
        "lat": -37.1176192022471,
        "lon": 156.0241668301303,
        "alt_km": 603.0729761499206,
        "timestamp": "2025-12-16T17:51:11.328464+00:00",
        "meta_object_name": "COSMOS 2251 DEB",
        "meta_object_id": "1993-036AKM",
        "meta_epoch": "2025-12-15T08:48:26.743680",
        "meta_mean_motion": 14.96932548,
        "meta_eccentricity": 0.00731181,
        "meta_inclination": 73.9871,
        "meta_ra_of_asc_node": 326.2641,
        "meta_arg_of_pericenter": 107.3149,
        "meta_mean_anomaly": 253.6052,
        "meta_ephemeris_type": 0,
        "meta_classification_type": "U",
        "meta_norad_cat_id": 35443,
        "meta_element_set_no": 999,
        "meta_rev_at_epoch": 86917,
        "meta_bstar": 0.0020713088,
        "meta_mean_motion_dot": 0.00025182,
        "meta_mean_motion_ddot": 0,
        "tle_line1": "1 35443U 93036AKM 25349.36697620  .00025182  00000+0  20713-2 0  9994",
        "tle_line2": "2 35443  73.9871 326.2641 0073118 107.3149 253.6052 14.96932548869170"
      },
      "geometry": {
        "type": "Point",
        "coordinates": [
          156.0241668301303,
          -37.1176192022471
        ]
      }
    },
    {
      "type": "Feature",
      "properties": {
        "norad_id": 35445,
        "name": "COSMOS 2251 DEB",
        "group": "cosmos-2251-debris",
        "lat": 65.16291457541969,
        "lon": -29.42667536415991,
        "alt_km": 625.8934351800808,
        "timestamp": "2025-12-16T17:51:11.328474+00:00",
        "meta_object_name": "COSMOS 2251 DEB",
        "meta_object_id": "1993-036AKP",
        "meta_epoch": "2025-12-15T21:47:39.126336",
        "meta_mean_motion": 14.59222686,
        "meta_eccentricity": 0.01438348,
        "meta_inclination": 74.0368,
        "meta_ra_of_asc_node": 293.9647,
        "meta_arg_of_pericenter": 20.1975,
        "meta_mean_anomaly": 340.4799,
        "meta_ephemeris_type": 0,
        "meta_classification_type": "U",
        "meta_norad_cat_id": 35445,
        "meta_element_set_no": 999,
        "meta_rev_at_epoch": 87375,
        "meta_bstar": 0.0015699344,
        "meta_mean_motion_dot": 8.537e-05,
        "meta_mean_motion_ddot": 0,
        "tle_line1": "1 35445U 93036AKP 25349.90809174  .00008537  00000+0  15699-2 0  9997",
        "tle_line2": "2 35445  74.0368 293.9647 0143834  20.1975 340.4799 14.59222686873759"
      },
      "geometry": {
        "type": "Point",
        "coordinates": [
          -29.42667536415991,
          65.16291457541969
        ]
      }
    },
    {
      "type": "Feature",
      "properties": {
        "norad_id": 35446,
        "name": "COSMOS 2251 DEB",
        "group": "cosmos-2251-debris",
        "lat": 37.627649234550134,
        "lon": -36.65008499733324,
        "alt_km": 660.8590358026831,
        "timestamp": "2025-12-16T17:51:11.328484+00:00",
        "meta_object_name": "COSMOS 2251 DEB",
        "meta_object_id": "1993-036AKQ",
        "meta_epoch": "2025-12-15T15:15:54.535104",
        "meta_mean_motion": 14.54632134,
        "meta_eccentricity": 0.00744411,
        "meta_inclination": 74.047,
        "meta_ra_of_asc_node": 312.705,
        "meta_arg_of_pericenter": 70.0614,
        "meta_mean_anomaly": 290.8548,
        "meta_ephemeris_type": 0,
        "meta_classification_type": "U",
        "meta_norad_cat_id": 35446,
        "meta_element_set_no": 999,
        "meta_rev_at_epoch": 88050,
        "meta_bstar": 0.00011676696,
        "meta_mean_motion_dot": 4.88e-06,
        "meta_mean_motion_ddot": 0,
        "tle_line1": "1 35446U 93036AKQ 25349.63604786  .00000488  00000+0  11677-3 0  9990",
        "tle_line2": "2 35446  74.0470 312.7050 0074441  70.0614 290.8548 14.54632134880502"
      },
      "geometry": {
        "type": "Point",
        "coordinates": [
          -36.65008499733324,
          37.627649234550134
        ]
      }
    },
    {
      "type": "Feature",
      "properties": {
        "norad_id": 35448,
        "name": "COSMOS 2251 DEB",
        "group": "cosmos-2251-debris",
        "lat": -67.34277931695091,
        "lon": -54.35526236185039,
        "alt_km": 710.166405756142,
        "timestamp": "2025-12-16T17:51:11.328494+00:00",
        "meta_object_name": "COSMOS 2251 DEB",
        "meta_object_id": "1993-036AKS",
        "meta_epoch": "2025-12-14T16:48:40.813632",
        "meta_mean_motion": 14.54286955,
        "meta_eccentricity": 0.00119673,
        "meta_inclination": 73.9048,
        "meta_ra_of_asc_node": 85.7736,
        "meta_arg_of_pericenter": 268.2948,
        "meta_mean_anomaly": 91.6843,
        "meta_ephemeris_type": 0,
        "meta_classification_type": "U",
        "meta_norad_cat_id": 35448,
        "meta_element_set_no": 999,
        "meta_rev_at_epoch": 87363,
        "meta_bstar": 0.00094048305,
        "meta_mean_motion_dot": 3.966e-05,
        "meta_mean_motion_ddot": 0,
        "tle_line1": "1 35448U 93036AKS 25348.70047238  .00003966  00000+0  94048-3 0  9999",
        "tle_line2": "2 35448  73.9048  85.7736 0011967 268.2948  91.6843 14.54286955873633"
      },
      "geometry": {
        "type": "Point",
        "coordinates": [
          -54.35526236185039,
          -67.34277931695091
        ]
      }
    },
    {
      "type": "Feature",
      "properties": {
        "norad_id": 35451,
        "name": "COSMOS 2251 DEB",
        "group": "cosmos-2251-debris",
        "lat": 9.458099544350555,
        "lon": 96.76921238723496,
        "alt_km": 435.18982127342224,
        "timestamp": "2025-12-16T17:51:11.328505+00:00",
        "meta_object_name": "COSMOS 2251 DEB",
        "meta_object_id": "1993-036AKV",
        "meta_epoch": "2025-12-14T17:21:00.017568",
        "meta_mean_motion": 15.35844177,
        "meta_eccentricity": 0.00411257,
        "meta_inclination": 73.9322,
        "meta_ra_of_asc_node": 98.383,
        "meta_arg_of_pericenter": 344.054,
        "meta_mean_anomaly": 15.9367,
        "meta_ephemeris_type": 0,
        "meta_classification_type": "U",
        "meta_norad_cat_id": 35451,
        "meta_element_set_no": 999,
        "meta_rev_at_epoch": 67436,
        "meta_bstar": 0.0011714729,
        "meta_mean_motion_dot": 0.00042215,
        "meta_mean_motion_ddot": 0,
        "tle_line1": "1 35451U 93036AKV 25348.72291687  .00042215  00000+0  11715-2 0  9993",
        "tle_line2": "2 35451  73.9322  98.3830 0041125 344.0540  15.9367 15.35844177674362"
      },
      "geometry": {
        "type": "Point",
        "coordinates": [
          96.76921238723496,
          9.458099544350555
        ]
      }
    },
    {
      "type": "Feature",
      "properties": {
        "norad_id": 35453,
        "name": "COSMOS 2251 DEB",
        "group": "cosmos-2251-debris",
        "lat": 65.86274578294783,
        "lon": 52.77364818049517,
        "alt_km": 744.9830571102657,
        "timestamp": "2025-12-16T17:51:11.328515+00:00",
        "meta_object_name": "COSMOS 2251 DEB",
        "meta_object_id": "1993-036AKX",
        "meta_epoch": "2025-12-12T10:00:01.192608",
        "meta_mean_motion": 14.37983532,
        "meta_eccentricity": 0.00672601,
        "meta_inclination": 74.0093,
        "meta_ra_of_asc_node": 20.9669,
        "meta_arg_of_pericenter": 155.0047,
        "meta_mean_anomaly": 205.439,
        "meta_ephemeris_type": 0,
        "meta_classification_type": "U",
        "meta_norad_cat_id": 35453,
        "meta_element_set_no": 999,
        "meta_rev_at_epoch": 86214,
        "meta_bstar": 0.0010887113,
        "meta_mean_motion_dot": 3.355e-05,
        "meta_mean_motion_ddot": 0,
        "tle_line1": "1 35453U 93036AKX 25346.41668047  .00003355  00000+0  10887-2 0  9998",
        "tle_line2": "2 35453  74.0093  20.9669 0067260 155.0047 205.4390 14.37983532862149"
      },
      "geometry": {
        "type": "Point",
        "coordinates": [
          52.77364818049517,
          65.86274578294783
        ]
      }
    },
    {
      "type": "Feature",
      "properties": {
        "norad_id": 35455,
        "name": "COSMOS 2251 DEB",
        "group": "cosmos-2251-debris",
        "lat": 73.9918959769599,
        "lon": 20.65763070847154,
        "alt_km": 685.3761534897912,
        "timestamp": "2025-12-16T17:51:11.328525+00:00",
        "meta_object_name": "COSMOS 2251 DEB",
        "meta_object_id": "1993-036AKZ",
        "meta_epoch": "2025-12-15T06:39:23.942880",
        "meta_mean_motion": 14.49440801,
        "meta_eccentricity": 0.00992528,
        "meta_inclination": 74.0281,
        "meta_ra_of_asc_node": 290.039,
        "meta_arg_of_pericenter": 32.9545,
        "meta_mean_anomaly": 327.7748,
        "meta_ephemeris_type": 0,
        "meta_classification_type": "U",
        "meta_norad_cat_id": 35455,
        "meta_element_set_no": 999,
        "meta_rev_at_epoch": 86580,
        "meta_bstar": 0.0011136115,
        "meta_mean_motion_dot": 4.513e-05,
        "meta_mean_motion_ddot": 0,
        "tle_line1": "1 35455U 93036AKZ 25349.27736045  .00004513  00000+0  11136-2 0  9996",
        "tle_line2": "2 35455  74.0281 290.0390 0099252  32.9545 327.7748 14.49440801865804"
      },
      "geometry": {
        "type": "Point",
        "coordinates": [
          20.65763070847154,
          73.9918959769599
        ]
      }
    }
  ]
}